{
  "type": "FeatureCollection",
  "features": [
    {
      "type": "Feature",
      "properties": {},
      "geometry": {
        "type": "LineString",
        "coordinates": [
          [-115.172806, 36.1080881],
          [-115.1728133, 36.1087961],
          [-115.1728125, 36.1116599],
          [-115.172803, 36.1132452],
          [-115.1727669, 36.1147246],
          [-115.1728126, 36.1172933],
          [-115.1727976, 36.117612],
          [-115.1727585, 36.1181697],
          [-115.1726299, 36.1190068],
          [-115.1724156, 36.1198548],
          [-115.1721407, 36.120619],
          [-115.172018, 36.1209364],
          [-115.1716177, 36.1217592],
          [-115.1713835, 36.1221479],
          [-115.1711217, 36.1225813],
          [-115.1711217, 36.1225813]
        ]
      }
    }
  ]
}
